{
    "links": {
        "self": "http://www.neowsapp.com/rest/v1/neo/3781716?api_key=iIulBulltgU6a56xZRHN4H3l9WmuAYTsLGpBGhQ2"
    },
    "id": "3781716",
    "neo_reference_id": "3781716",
    "name": "(2017 SC12)",
    "designation": "2017 SC12",
    "nasa_jpl_url": "http://ssd.jpl.nasa.gov/sbdb.cgi?sstr=3781716",
    "absolute_magnitude_h": 23.6,
    "estimated_diameter": {
        "kilometers": {
            "estimated_diameter_min": 0.0506471459,
            "estimated_diameter_max": 0.1132504611
        },
        "meters": {
            "estimated_diameter_min": 50.6471458835,
            "estimated_diameter_max": 113.2504610618
        },
        "miles": {
            "estimated_diameter_min": 0.0314706677,
            "estimated_diameter_max": 0.0703705522
        },
        "feet": {
            "estimated_diameter_min": 166.1651821003,
            "estimated_diameter_max": 371.5566426699
        }
    },
    "is_potentially_hazardous_asteroid": false,
    "close_approach_data": [
        {
            "close_approach_date": "2017-08-18",
            "close_approach_date_full": "2017-Aug-18 21:30",
            "epoch_date_close_approach": 1503091800000,
            "relative_velocity": {
                "kilometers_per_second": "9.3126681832",
                "kilometers_per_hour": "33525.605459386",
                "miles_per_hour": "20831.5074589168"
            },
            "miss_distance": {
                "astronomical": "0.0412618633",
                "lunar": "16.0508648237",
                "kilometers": "6172686.861911171",
                "miles": "3835529.7601133198"
            },
            "orbiting_body": "Earth"
        }
    ],
    "orbital_data": {
        "orbit_id": "1",
        "orbit_determination_date": "2017-09-25 14:12:08",
        "first_observation_date": "2017-09-21",
        "last_observation_date": "2017-09-24",
        "data_arc_in_days": 3,
        "observations_used": 14,
        "orbit_uncertainty": "9",
        "minimum_orbit_intersection": ".0253393",
        "jupiter_tisserand_invariant": "3.444",
        "epoch_osculation": "2458018.5",
        "eccentricity": ".5516872908306102",
        "semi_major_axis": "2.196031209582334",
        "inclination": "7.439526830474906",
        "ascending_node_longitude": "341.973098749697",
        "orbital_period": "1188.656005118363",
        "perihelion_distance": ".9845087009883882",
        "perihelion_argument": "323.6027263543678",
        "aphelion_distance": "3.407553718176279",
        "perihelion_time": "2457966.973406975297",
        "mean_anomaly": "15.60550185168666",
        "mean_motion": ".3028630642085153",
        "equinox": "J2000",
        "orbit_class": {
            "orbit_class_type": "APO",
            "orbit_class_description": "Near-Earth asteroid orbits which cross the Earth’s orbit similar to that of 1862 Apollo",
            "orbit_class_range": "a (semi-major axis) > 1.0 AU; q (perihelion) < 1.017 AU"
        }
    },
    "is_sentry_object": false
}